381P/LINEAR-Spacewatch,e,28.3756,173.7884,173.1081,7.115004,0.0519328,0.68158649,13.2472,06/08.0/2020,2000,g 17.5,2.0
# From MPC115889
382P/Larson,e,7.6691,177.5354,174.3488,6.214241,0.0636241,0.29728742,316.7791,06/08.0/2020,2000,g  8.0,4.0
# From MPC118844
383P/Christensen,e,12.3218,207.8959,133.6270,3.543609,0.1477527,0.59949037,33.3595,06/08.0/2020,2000,g 18.0,4.0
# From MPEC 2020-C98
384P/Kowalski,e,7.2816,354.2273,37.6436,2.901632,0.1994070,0.61531415,47.9749,06/08.0/2020,2000,g 19.5,4.0
# From MPEC 2020-C98
385P/Hill,e,16.8263,357.0724,44.3282,4.287712,0.1110109,0.40120290,29.6650,06/08.0/2020,2000,g 13.0,4.0
# From MPEC 2020-C98
386P/PANSTARRS,e,15.2291,134.9481,353.2663,4.058373,0.1205525,0.41645318,351.2706,06/08.0/2020,2000,g 14.5,4.0
# From MPEC 2020-C98
387P/Boattini,e,8.9170,259.3389,162.7909,4.801072,0.0936907,0.73596892,25.8431,06/08.0/2020,2000,g 15.0,4.0
# From MPEC 2020-HN5
388P/Gibbs,e,23.8595,37.0513,42.4058,5.247535,0.0819919,0.61797037,26.2718,06/08.0/2020,2000,g 13.0,4.0
# From MPC118845
389P/Siding Spring,e,160.0666,218.8481,249.2943,5.628825,0.0738036,0.70452358,11.9366,06/08.0/2020,2000,g 16.0,4.0
# From MPEC 2020-C98
390P/Gibbs,e,18.5590,152.2798,232.3383,5.798310,0.0705914,0.70684895,5.4900,06/08.0/2020,2000,g 12.0,4.0
# From MPEC 2020-AA5
391P/Kowalski,e,21.2761,124.7309,186.6369,4.675494,0.0974906,0.12082694,79.2033,06/08.0/2020,2000,g  8.0,4.0
# From MPEC 2020-HN5
392P/LINEAR,e,4.9294,24.8862,71.9943,6.149847,0.0646260,0.68288205,4.4049,06/08.0/2020,2000,g 14.5,4.0
# From MPC118845
393P/Spacewatch-Hill,e,16.7963,36.4214,327.9938,4.783073,0.0942201,0.12010329,21.5164,06/08.0/2020,2000,g 11.0,4.0
# From MPEC 2020-HN5
394P/,e,8.5295,98.1257,54.5221,4.333651,0.1092504,0.36821117,20.8198,06/08.0/2020,2000,g 16.0,2.4
# From MPEC 2020-FB7
395P/Catalina-NEAT,e,3.2804,223.8072,89.8537,6.521609,0.0591796,0.37676539,326.1587,06/08.0/2020,2000,g 10.0,4.0
# From MPC107687
1I/`Oumuamua,h,09/09.4886/2017,122.6778,24.5997,241.6845,1.199252,0.255240,2000,23.0,2.0
# From MPEC 2020-HN5
2I/Borisov,h,12/08.5530/2019,44.0527,308.1479,209.1240,3.356641,2.006542,2000,11.0,4.0
